{"type": "FeatureCollection", "features": [ {"type": "Feature", "properties": {"norad_id": 43108, "name": "BEIDOU-3 M8 (C28)", "group": "gnss", "lat": -49.95138779027066, "lon": -108.98611213677756, "alt_km": 21520.654405253776, "timestamp": "2025-12-03T04:52:29.880712+00:00", "meta": {"OBJECT_NAME": "BEIDOU-3 M8 (C28)", "OBJECT_ID": "2018-003B", "EPOCH": "2025-12-01T03:50:13.118784", "MEAN_MOTION": 1.86230755, "ECCENTRICITY": 0.0004823, "INCLINATION": 54.4999, "RA_OF_ASC_NODE": 309.2007, "ARG_OF_PERICENTER": 273.5581, "MEAN_ANOMALY": 86.3811, "EPHEMERIS_TYPE": 0, "CLASSIFICATION_TYPE": "U", "NORAD_CAT_ID": 43108, "ELEMENT_SET_NO": 999, "REV_AT_EPOCH": 5367, "BSTAR": 0, "MEAN_MOTION_DOT": -5.7e-07, "MEAN_MOTION_DDOT": 0}, "tle": {"line1": "1 43108U 18003B   25335.15987406 -.00000057  00000+0  00000+0 0  9997", "line2": "2 43108  54.4999 309.2007 0004823 273.5581  86.3811  1.86230755 53672"}}, "geometry": {"type": "Point", "coordinates": [-108.98611213677756, -49.95138779027066]}}, {"type": "Feature", "properties": {"norad_id": 43207, "name": "BEIDOU-3 M4 (C22)", "group": "gnss", "lat": -5.306697764563736, "lon": 66.09588181881257, "alt_km": 21518.47995946759, "timestamp": "2025-12-03T04:52:29.880723+00:00", "meta": {"OBJECT_NAME": "BEIDOU-3 M4 (C22)", "OBJECT_ID": "2018-018A", "EPOCH": "2025-12-02T03:19:43.852800", "MEAN_MOTION": 1.86230706, "ECCENTRICITY": 0.00040749, "INCLINATION": 56.4768, "RA_OF_ASC_NODE": 69.6557, "ARG_OF_PERICENTER": 15.1369, "MEAN_ANOMALY": 344.8773, "EPHEMERIS_TYPE": 0, "CLASSIFICATION_TYPE": "U", "NORAD_CAT_ID": 43207, "ELEMENT_SET_NO": 999, "REV_AT_EPOCH": 5307, "BSTAR": 0, "MEAN_MOTION_DOT": -4.5e-07, "MEAN_MOTION_DDOT": 0}, "tle": {"line1": "1 43207U 18018A   25336.13870200 -.00000045  00000+0  00000+0 0  9992", "line2": "2 43207  56.4768  69.6557 0004074  15.1369 344.8773  1.86230706 53076"}}, "geometry": {"type": "Point", "coordinates": [66.09588181881257, -5.306697764563736]}}, {"type": "Feature", "properties": {"norad_id": 43208, "name": "BEIDOU-3 M3 (C21)", "group": "gnss", "lat": -40.40494197631362, "lon": 35.332240717340916, "alt_km": 21515.651504424004, "timestamp": "2025-12-03T04:52:29.880734+00:00", "meta": {"OBJECT_NAME": "BEIDOU-3 M3 (C21)", "OBJECT_ID": "2018-018B", "EPOCH": "2025-12-02T17:48:44.716608", "MEAN_MOTION": 1.86230878, "ECCENTRICITY": 0.0006254, "INCLINATION": 56.4767, "RA_OF_ASC_NODE": 69.6397, "ARG_OF_PERICENTER": 317.6191, "MEAN_ANOMALY": 42.3346, "EPHEMERIS_TYPE": 0, "CLASSIFICATION_TYPE": "U", "NORAD_CAT_ID": 43208, "ELEMENT_SET_NO": 999, "REV_AT_EPOCH": 5308, "BSTAR": 0, "MEAN_MOTION_DOT": -4.7e-07, "MEAN_MOTION_DDOT": 0}, "tle": {"line1": "1 43208U 18018B   25336.74218422 -.00000047  00000+0  00000+0 0  9994", "line2": "2 43208  56.4767  69.6397 0006254 317.6191  42.3346  1.86230878 53080"}}, "geometry": {"type": "Point", "coordinates": [35.332240717340916, -40.40494197631362]}}, {"type": "Feature", "properties": {"norad_id": 43245, "name": "BEIDOU-3 M9 (C29)", "group": "gnss", "lat": 12.80903465996283, "lon": 117.40118561254931, "alt_km": 21528.488131185335, "timestamp": "2025-12-03T04:52:29.880746+00:00", "meta": {"OBJECT_NAME": "BEIDOU-3 M9 (C29)", "OBJECT_ID": "2018-029A", "EPOCH": "2025-12-01T08:20:14.784576", "MEAN_MOTION": 1.86227904, "ECCENTRICITY": 0.00017985, "INCLINATION": 54.3765, "RA_OF_ASC_NODE": 306.8658, "ARG_OF_PERICENTER": 272.1738, "MEAN_ANOMALY": 87.7976, "EPHEMERIS_TYPE": 0, "CLASSIFICATION_TYPE": "U", "NORAD_CAT_ID": 43245, "ELEMENT_SET_NO": 999, "REV_AT_EPOCH": 5221, "BSTAR": 0, "MEAN_MOTION_DOT": -5.8e-07, "MEAN_MOTION_DDOT": 0}, "tle": {"line1": "1 43245U 18029A   25335.34739334 -.00000058  00000+0  00000+0 0  9994", "line2": "2 43245  54.3765 306.8658 0001798 272.1738  87.7976  1.86227904 52214"}}, "geometry": {"type": "Point", "coordinates": [117.40118561254931, 12.80903465996283]}}, {"type": "Feature", "properties": {"norad_id": 43246, "name": "BEIDOU-3 M10 (C30)", "group": "gnss", "lat": -22.09049961655991, "lon": 143.72145944650737, "alt_km": 21540.884574220352, "timestamp": "2025-12-03T04:52:29.880757+00:00", "meta": {"OBJECT_NAME": "BEIDOU-3 M10 (C30)", "OBJECT_ID": "2018-029B", "EPOCH": "2025-12-01T06:47:05.876160", "MEAN_MOTION": 1.86228878, "ECCENTRICITY": 0.0003946, "INCLINATION": 54.3738, "RA_OF_ASC_NODE": 306.8948, "ARG_OF_PERICENTER": 359.0854, "MEAN_ANOMALY": 0.9061, "EPHEMERIS_TYPE": 0, "CLASSIFICATION_TYPE": "U", "NORAD_CAT_ID": 43246, "ELEMENT_SET_NO": 999, "REV_AT_EPOCH": 5219, "BSTAR": 0, "MEAN_MOTION_DOT": -5.7e-07, "MEAN_MOTION_DDOT": 0}, "tle": {"line1": "1 43246U 18029B   25335.28270690 -.00000057  00000+0  00000+0 0  9992", "line2": "2 43246  54.3738 306.8948 0003946 359.0854   0.9061  1.86228878 52198"}}, "geometry": {"type": "Point", "coordinates": [143.72145944650737, -22.09049961655991]}}, {"type": "Feature", "properties": {"norad_id": 43286, "name": "IRNSS-1I", "group": "gnss", "lat": 24.045327978264435, "lon": -155.96009405244902, "alt_km": 35733.12208447304, "timestamp": "2025-12-03T04:52:29.880769+00:00", "meta": {"OBJECT_NAME": "IRNSS-1I", "OBJECT_ID": "2018-035A", "EPOCH": "2025-12-02T20:13:42.640032", "MEAN_MOTION": 1.00277629, "ECCENTRICITY": 0.0021545, "INCLINATION": 29.1261, "RA_OF_ASC_NODE": 77.2534, "ARG_OF_PERICENTER": 181.2965, "MEAN_ANOMALY": 171.9757, "EPHEMERIS_TYPE": 0, "CLASSIFICATION_TYPE": "U", "NORAD_CAT_ID": 43286, "ELEMENT_SET_NO": 999, "REV_AT_EPOCH": 2810, "BSTAR": 0, "MEAN_MOTION_DOT": 8.6e-07, "MEAN_MOTION_DDOT": 0}, "tle": {"line1": "1 43286U 18035A   25336.84285463  .00000086  00000+0  00000+0 0  9991", "line2": "2 43286  29.1261  77.2534 0021545 181.2965 171.9757  1.00277629 28105"}}, "geometry": {"type": "Point", "coordinates": [-155.96009405244902, 24.045327978264435]}}, {"type": "Feature", "properties": {"norad_id": 43508, "name": "COSMOS 2527 (756)", "group": "gnss", "lat": -24.253836321648205, "lon": -87.69411684436541, "alt_km": 19112.320793883137, "timestamp": "2025-12-03T04:52:29.880782+00:00", "meta": {"OBJECT_NAME": "COSMOS 2527 (756)", "OBJECT_ID": "2018-053A", "EPOCH": "2025-12-02T11:08:26.615616", "MEAN_MOTION": 2.13102038, "ECCENTRICITY": 0.00086347, "INCLINATION": 65.467, "RA_OF_ASC_NODE": 80.4752, "ARG_OF_PERICENTER": 223.9095, "MEAN_ANOMALY": 136.0181, "EPHEMERIS_TYPE": 0, "CLASSIFICATION_TYPE": "U", "NORAD_CAT_ID": 43508, "ELEMENT_SET_NO": 999, "REV_AT_EPOCH": 5808, "BSTAR": 0, "MEAN_MOTION_DOT": -1.9e-07, "MEAN_MOTION_DDOT": 0}, "tle": {"line1": "1 43508U 18053A   25336.46419694 -.00000019  00000+0  00000+0 0  9998", "line2": "2 43508  65.4670  80.4752 0008634 223.9095 136.0181  2.13102038 58088"}}, "geometry": {"type": "Point", "coordinates": [-87.69411684436541, -24.253836321648205]}}, {"type": "Feature", "properties": {"norad_id": 43539, "name": "BEIDOU-2 IGSO-7 (C16)", "group": "gnss", "lat": 55.08770485920825, "lon": -102.79183780599925, "alt_km": 36097.79394298745, "timestamp": "2025-12-03T04:52:29.880794+00:00", "meta": {"OBJECT_NAME": "BEIDOU-2 IGSO-7 (C16)", "OBJECT_ID": "2018-057A", "EPOCH": "2025-12-01T22:54:18.573696", "MEAN_MOTION": 1.00259974, "ECCENTRICITY": 0.00924716, "INCLINATION": 55.1727, "RA_OF_ASC_NODE": 164.7667, "ARG_OF_PERICENTER": 235.1548, "MEAN_ANOMALY": 126.2091, "EPHEMERIS_TYPE": 0, "CLASSIFICATION_TYPE": "U", "NORAD_CAT_ID": 43539, "ELEMENT_SET_NO": 999, "REV_AT_EPOCH": 2715, "BSTAR": 0, "MEAN_MOTION_DOT": -1.8e-07, "MEAN_MOTION_DDOT": 0}, "tle": {"line1": "1 43539U 18057A   25335.95438164 -.00000018  00000+0  00000+0 0  9991", "line2": "2 43539  55.1727 164.7667 0092471 235.1548 126.2091  1.00259974 27154"}}, "geometry": {"type": "Point", "coordinates": [-102.79183780599925, 55.08770485920825]}}, {"type": "Feature", "properties": {"norad_id": 43564, "name": "GSAT0221 (GALILEO 25)", "group": "gnss", "lat": 29.14431927021463, "lon": 8.136586650012694, "alt_km": 23226.99461739833, "timestamp": "2025-12-03T04:52:29.880805+00:00", "meta": {"OBJECT_NAME": "GSAT0221 (GALILEO 25)", "OBJECT_ID": "2018-060A", "EPOCH": "2025-12-01T09:15:23.303232", "MEAN_MOTION": 1.70475711, "ECCENTRICITY": 0.00066191, "INCLINATION": 57.2301, "RA_OF_ASC_NODE": 347.1247, "ARG_OF_PERICENTER": 279.777, "MEAN_ANOMALY": 80.1905, "EPHEMERIS_TYPE": 0, "CLASSIFICATION_TYPE": "U", "NORAD_CAT_ID": 43564, "ELEMENT_SET_NO": 999, "REV_AT_EPOCH": 4579, "BSTAR": 0, "MEAN_MOTION_DOT": -5.9e-07, "MEAN_MOTION_DDOT": 0}, "tle": {"line1": "1 43564U 18060A   25335.38568638 -.00000059  00000+0  00000+0 0  9995", "line2": "2 43564  57.2301 347.1247 0006619 279.7770  80.1905  1.70475711 45792"}}, "geometry": {"type": "Point", "coordinates": [8.136586650012694, 29.14431927021463]}}, {"type": "Feature", "properties": {"norad_id": 43565, "name": "GSAT0222 (GALILEO 26)", "group": "gnss", "lat": -56.075658691932325, "lon": -119.63072569302794, "alt_km": 23209.698918158123, "timestamp": "2025-12-03T04:52:29.880818+00:00", "meta": {"OBJECT_NAME": "GSAT0222 (GALILEO 26)", "OBJECT_ID": "2018-060B", "EPOCH": "2025-11-29T06:12:28.687968", "MEAN_MOTION": 1.70475509, "ECCENTRICITY": 0.00061732, "INCLINATION": 57.2346, "RA_OF_ASC_NODE": 347.1853, "ARG_OF_PERICENTER": 259.4518, "MEAN_ANOMALY": 100.5223, "EPHEMERIS_TYPE": 0, "CLASSIFICATION_TYPE": "U", "NORAD_CAT_ID": 43565, "ELEMENT_SET_NO": 999, "REV_AT_EPOCH": 4580, "BSTAR": 0, "MEAN_MOTION_DOT": -5.5e-07, "MEAN_MOTION_DDOT": 0}, "tle": {"line1": "1 43565U 18060B   25333.25866537 -.00000055  00000+0  00000+0 0  9995", "line2": "2 43565  57.2346 347.1853 0006173 259.4518 100.5223  1.70475509 45802"}}, "geometry": {"type": "Point", "coordinates": [-119.63072569302794, -56.075658691932325]}}]}